[{"OBJECT_NAME":"WORLDVIEW-1 (WV-1)","OBJECT_ID":"2007-041A","EPOCH":"2026-04-25T09:12:07.463808","MEAN_MOTION":15.24300545,"ECCENTRICITY":0.0001754,"INCLINATION":97.3874,"RA_OF_ASC_NODE":235.8665,"ARG_OF_PERICENTER":202.2169,"MEAN_ANOMALY":157.8993,"EPHEMERIS_TYPE":0,"CLASSIFICATION_TYPE":"U","NORAD_CAT_ID":32060,"ELEMENT_SET_NO":999,"REV_AT_EPOCH":3483,"BSTAR":0.00028592,"MEAN_MOTION_DOT":6.918e-5,"MEAN_MOTION_DDOT":0},{"OBJECT_NAME":"YAOGAN-3","OBJECT_ID":"2007-055A","EPOCH":"2026-04-25T12:01:54.355584","MEAN_MOTION":14.90574633,"ECCENTRICITY":0.0001416,"INCLINATION":97.8205,"RA_OF_ASC_NODE":145.897,"ARG_OF_PERICENTER":96.9014,"MEAN_ANOMALY":263.2365,"EPHEMERIS_TYPE":0,"CLASSIFICATION_TYPE":"U","NORAD_CAT_ID":32289,"ELEMENT_SET_NO":999,"REV_AT_EPOCH":99801,"BSTAR":0.00023409,"MEAN_MOTION_DOT":2.234e-5,"MEAN_MOTION_DDOT":0},{"OBJECT_NAME":"COSMO-SKYMED 2","OBJECT_ID":"2007-059A","EPOCH":"2026-04-25T12:04:05.329344","MEAN_MOTION":14.82158729,"ECCENTRICITY":0.0001381,"INCLINATION":97.8885,"RA_OF_ASC_NODE":299.8642,"ARG_OF_PERICENTER":92.8495,"MEAN_ANOMALY":267.2876,"EPHEMERIS_TYPE":0,"CLASSIFICATION_TYPE":"U","NORAD_CAT_ID":32376,"ELEMENT_SET_NO":999,"REV_AT_EPOCH":99419,"BSTAR":5.878e-5,"MEAN_MOTION_DOT":4.16e-6,"MEAN_MOTION_DDOT":0},{"OBJECT_NAME":"RADARSAT-2","OBJECT_ID":"2007-061A","EPOCH":"2026-04-25T13:25:54.786432","MEAN_MOTION":14.29983201,"ECCENTRICITY":0.000126,"INCLINATION":98.5805,"RA_OF_ASC_NODE":123.2417,"ARG_OF_PERICENTER":82.8177,"MEAN_ANOMALY":277.3148,"EPHEMERIS_TYPE":0,"CLASSIFICATION_TYPE":"U","NORAD_CAT_ID":32382,"ELEMENT_SET_NO":999,"REV_AT_EPOCH":95843,"BSTAR":0.00014182,"MEAN_MOTION_DOT":3.22e-6,"MEAN_MOTION_DDOT":0},{"OBJECT_NAME":"CARTOSAT-2A","OBJECT_ID":"2008-021A","EPOCH":"2026-04-25T19:46:54.862176","MEAN_MOTION":14.79168068,"ECCENTRICITY":0.0010362,"INCLINATION":97.7682,"RA_OF_ASC_NODE":166.3101,"ARG_OF_PERICENTER":284.4769,"MEAN_ANOMALY":75.5292,"EPHEMERIS_TYPE":0,"CLASSIFICATION_TYPE":"U","NORAD_CAT_ID":32783,"ELEMENT_SET_NO":999,"REV_AT_EPOCH":97106,"BSTAR":2.5679e-5,"MEAN_MOTION_DOT":1.4e-6,"MEAN_MOTION_DDOT":0},{"OBJECT_NAME":"HUANJING 1A (HJ-1A)","OBJECT_ID":"2008-041A","EPOCH":"2026-04-25T21:47:14.340768","MEAN_MOTION":14.83862299,"ECCENTRICITY":0.0017988,"INCLINATION":97.6672,"RA_OF_ASC_NODE":103.7792,"ARG_OF_PERICENTER":314.1391,"MEAN_ANOMALY":45.8344,"EPHEMERIS_TYPE":0,"CLASSIFICATION_TYPE":"U","NORAD_CAT_ID":33320,"ELEMENT_SET_NO":999,"REV_AT_EPOCH":95065,"BSTAR":0.00010494,"MEAN_MOTION_DOT":8.21e-6,"MEAN_MOTION_DDOT":0},{"OBJECT_NAME":"HUANJING 1B (HJ-1B)","OBJECT_ID":"2008-041B","EPOCH":"2026-04-25T20:29:30.713280","MEAN_MOTION":14.83218237,"ECCENTRICITY":0.0036493,"INCLINATION":97.6515,"RA_OF_ASC_NODE":107.0549,"ARG_OF_PERICENTER":357.8058,"MEAN_ANOMALY":2.2991,"EPHEMERIS_TYPE":0,"CLASSIFICATION_TYPE":"U","NORAD_CAT_ID":33321,"ELEMENT_SET_NO":999,"REV_AT_EPOCH":95065,"BSTAR":0.00010922,"MEAN_MOTION_DOT":8.5e-6,"MEAN_MOTION_DDOT":0},{"OBJECT_NAME":"GEOEYE 1","OBJECT_ID":"2008-042A","EPOCH":"2026-04-25T19:45:28.164960","MEAN_MOTION":14.64675102,"ECCENTRICITY":0.0003442,"INCLINATION":98.1249,"RA_OF_ASC_NODE":190.4153,"ARG_OF_PERICENTER":209.5451,"MEAN_ANOMALY":150.5557,"EPHEMERIS_TYPE":0,"CLASSIFICATION_TYPE":"U","NORAD_CAT_ID":33331,"ELEMENT_SET_NO":999,"REV_AT_EPOCH":94248,"BSTAR":9.2642e-5,"MEAN_MOTION_DOT":4.45e-6,"MEAN_MOTION_DDOT":0},{"OBJECT_NAME":"THEOS","OBJECT_ID":"2008-049A","EPOCH":"2026-04-25T19:57:14.630976","MEAN_MOTION":14.20124618,"ECCENTRICITY":0.0001286,"INCLINATION":98.561,"RA_OF_ASC_NODE":174.8047,"ARG_OF_PERICENTER":91.5599,"MEAN_ANOMALY":268.5725,"EPHEMERIS_TYPE":0,"CLASSIFICATION_TYPE":"U","NORAD_CAT_ID":33396,"ELEMENT_SET_NO":999,"REV_AT_EPOCH":91053,"BSTAR":-7.7017e-5,"MEAN_MOTION_DOT":-2.07e-6,"MEAN_MOTION_DDOT":0},{"OBJECT_NAME":"COSMO-SKYMED 3","OBJECT_ID":"2008-054A","EPOCH":"2026-04-25T19:31:27.418656","MEAN_MOTION":15.06611712,"ECCENTRICITY":0.0017094,"INCLINATION":97.8359,"RA_OF_ASC_NODE":333.5099,"ARG_OF_PERICENTER":84.7141,"MEAN_ANOMALY":275.6035,"EPHEMERIS_TYPE":0,"CLASSIFICATION_TYPE":"U","NORAD_CAT_ID":33412,"ELEMENT_SET_NO":999,"REV_AT_EPOCH":94905,"BSTAR":0.00027469,"MEAN_MOTION_DOT":4.017e-5,"MEAN_MOTION_DDOT":0},{"OBJECT_NAME":"YAOGAN-4","OBJECT_ID":"2008-061A","EPOCH":"2026-04-25T19:32:06.760032","MEAN_MOTION":14.83099685,"ECCENTRICITY":0.0012975,"INCLINATION":97.9287,"RA_OF_ASC_NODE":49.7216,"ARG_OF_PERICENTER":238.687,"MEAN_ANOMALY":121.3074,"EPHEMERIS_TYPE":0,"CLASSIFICATION_TYPE":"U","NORAD_CAT_ID":33446,"ELEMENT_SET_NO":999,"REV_AT_EPOCH":93790,"BSTAR":0.00012724,"MEAN_MOTION_DOT":9.84e-6,"MEAN_MOTION_DDOT":0},{"OBJECT_NAME":"GOSAT (IBUKI)","OBJECT_ID":"2009-002A","EPOCH":"2026-04-25T20:13:27.761088","MEAN_MOTION":14.67542539,"ECCENTRICITY":0.0001272,"INCLINATION":98.0824,"RA_OF_ASC_NODE":227.5965,"ARG_OF_PERICENTER":109.2396,"MEAN_ANOMALY":250.8946,"EPHEMERIS_TYPE":0,"CLASSIFICATION_TYPE":"U","NORAD_CAT_ID":33492,"ELEMENT_SET_NO":999,"REV_AT_EPOCH":92378,"BSTAR":0.0001278,"MEAN_MOTION_DOT":6.77e-6,"MEAN_MOTION_DDOT":0},{"OBJECT_NAME":"DEIMOS-1","OBJECT_ID":"2009-041A","EPOCH":"2026-04-25T18:07:19.735392","MEAN_MOTION":14.75181364,"ECCENTRICITY":0.0002059,"INCLINATION":97.7346,"RA_OF_ASC_NODE":275.2736,"ARG_OF_PERICENTER":46.8269,"MEAN_ANOMALY":313.3112,"EPHEMERIS_TYPE":0,"CLASSIFICATION_TYPE":"U","NORAD_CAT_ID":35681,"ELEMENT_SET_NO":999,"REV_AT_EPOCH":89915,"BSTAR":0.00012712,"MEAN_MOTION_DOT":8.11e-6,"MEAN_MOTION_DDOT":0},{"OBJECT_NAME":"DUBAISAT-1","OBJECT_ID":"2009-041B","EPOCH":"2026-04-25T20:33:44.724960","MEAN_MOTION":14.75025108,"ECCENTRICITY":0.0009347,"INCLINATION":97.997,"RA_OF_ASC_NODE":249.7138,"ARG_OF_PERICENTER":234.4194,"MEAN_ANOMALY":125.6144,"EPHEMERIS_TYPE":0,"CLASSIFICATION_TYPE":"U","NORAD_CAT_ID":35682,"ELEMENT_SET_NO":999,"REV_AT_EPOCH":89738,"BSTAR":0.00017948,"MEAN_MOTION_DOT":1.158e-5,"MEAN_MOTION_DDOT":0},{"OBJECT_NAME":"OCEANSAT-2","OBJECT_ID":"2009-051A","EPOCH":"2026-04-25T20:55:12.305280","MEAN_MOTION":13.99650109,"ECCENTRICITY":0.0016095,"INCLINATION":98.2304,"RA_OF_ASC_NODE":107.955,"ARG_OF_PERICENTER":26.4279,"MEAN_ANOMALY":333.7705,"EPHEMERIS_TYPE":0,"CLASSIFICATION_TYPE":"U","NORAD_CAT_ID":35931,"ELEMENT_SET_NO":999,"REV_AT_EPOCH":87201,"BSTAR":-9.1651e-5,"MEAN_MOTION_DOT":-1.72e-6,"MEAN_MOTION_DDOT":0},{"OBJECT_NAME":"WORLDVIEW-2 (WV-2)","OBJECT_ID":"2009-055A","EPOCH":"2026-04-25T20:03:42.693120","MEAN_MOTION":14.37928264,"ECCENTRICITY":0.0004747,"INCLINATION":98.4692,"RA_OF_ASC_NODE":190.0234,"ARG_OF_PERICENTER":31.5884,"MEAN_ANOMALY":328.5587,"EPHEMERIS_TYPE":0,"CLASSIFICATION_TYPE":"U","NORAD_CAT_ID":35946,"ELEMENT_SET_NO":999,"REV_AT_EPOCH":86812,"BSTAR":5.257e-5,"MEAN_MOTION_DOT":1.15e-6,"MEAN_MOTION_DDOT":0},{"OBJECT_NAME":"SMOS","OBJECT_ID":"2009-059A","EPOCH":"2026-04-25T18:56:36.948192","MEAN_MOTION":14.39744392,"ECCENTRICITY":0.0001195,"INCLINATION":98.4435,"RA_OF_ASC_NODE":303.8896,"ARG_OF_PERICENTER":92.7955,"MEAN_ANOMALY":267.337,"EPHEMERIS_TYPE":0,"CLASSIFICATION_TYPE":"U","NORAD_CAT_ID":36036,"ELEMENT_SET_NO":999,"REV_AT_EPOCH":86591,"BSTAR":7.4027e-5,"MEAN_MOTION_DOT":1.88e-6,"MEAN_MOTION_DDOT":0}]
