WORLDVIEW-1 (WV-1)      
1 32060U 07041A   26115.38341972  .00006918  00000+0  28592-3 0  9997
2 32060  97.3874 235.8665 0001754 202.2169 157.8993 15.24300545 34834
YAOGAN-3                
1 32289U 07055A   26115.50132356  .00002234  00000+0  23409-3 0  9992
2 32289  97.8205 145.8970 0001416  96.9014 263.2365 14.90574633998018
COSMO-SKYMED 2          
1 32376U 07059A   26115.50283946  .00000416  00000+0  58780-4 0  9996
2 32376  97.8885 299.8642 0001381  92.8495 267.2876 14.82158729994195
RADARSAT-2              
1 32382U 07061A   26115.55966188  .00000322  00000+0  14182-3 0  9990
2 32382  98.5805 123.2417 0001260  82.8177 277.3148 14.29983201958437
CARTOSAT-2A             
1 32783U 08021A   26115.82424609  .00000140  00000+0  25679-4 0  9991
2 32783  97.7682 166.3101 0010362 284.4769  75.5292 14.79168068971067
HUANJING 1A (HJ-1A)     
1 33320U 08041A   26115.90780487  .00000821  00000+0  10494-3 0  9993
2 33320  97.6672 103.7792 0017988 314.1391  45.8344 14.83862299950659
HUANJING 1B (HJ-1B)     
1 33321U 08041B   26115.85382770  .00000850  00000+0  10922-3 0  9999
2 33321  97.6515 107.0549 0036493 357.8058   2.2991 14.83218237950651
GEOEYE 1                
1 33331U 08042A   26115.82324265  .00000445  00000+0  92642-4 0  9993
2 33331  98.1249 190.4153 0003442 209.5451 150.5557 14.64675102942481
THEOS                   
1 33396U 08049A   26115.83141934 -.00000207  00000+0 -77017-4 0  9999
2 33396  98.5610 174.8047 0001286  91.5599 268.5725 14.20124618910533
COSMO-SKYMED 3          
1 33412U 08054A   26115.81351179  .00004017  00000+0  27469-3 0  9992
2 33412  97.8359 333.5099 0017094  84.7141 275.6035 15.06611712949059
YAOGAN-4                
1 33446U 08061A   26115.81396713  .00000984  00000+0  12724-3 0  9997
2 33446  97.9287  49.7216 0012975 238.6870 121.3074 14.83099685937900
GOSAT (IBUKI)           
1 33492U 09002A   26115.84268242  .00000677  00000+0  12780-3 0  9993
2 33492  98.0824 227.5965 0001272 109.2396 250.8946 14.67542539923781
DEIMOS-1                
1 35681U 09041A   26115.75508953  .00000811  00000+0  12712-3 0  9999
2 35681  97.7346 275.2736 0002059  46.8269 313.3112 14.75181364899150
DUBAISAT-1              
1 35682U 09041B   26115.85676765  .00001158  00000+0  17948-3 0  9999
2 35682  97.9970 249.7138 0009347 234.4194 125.6144 14.75025108897382
OCEANSAT-2              
1 35931U 09051A   26115.87167020 -.00000172  00000+0 -91651-4 0  9999
2 35931  98.2304 107.9550 0016095  26.4279 333.7705 13.99650109872016
WORLDVIEW-2 (WV-2)      
1 35946U 09055A   26115.83591080  .00000115  00000+0  52570-4 0  9994
2 35946  98.4692 190.0234 0004747  31.5884 328.5587 14.37928264868126
SMOS                    
1 36036U 09059A   26115.78931653  .00000188  00000+0  74027-4 0  9998
2 36036  98.4435 303.8896 0001195  92.7955 267.3370 14.39744392865916
